0 FENGYUN 1C DEB
1 31725U 99025CDY 13286.95647331  .00000983  00000-0  18238-2 0  2842
2 31725 099.2000 190.0672 0715533 132.2299 234.2252 12.69559070299427
0 FENGYUN 1C DEB
1 31725U 99025CDY 13292.01456521  .00001697  00000-0  30738-2 0  2858
2 31725 099.2024 194.1479 0719282 121.0556 312.0396 12.69578655300067
0 FENGYUN 1C DEB
1 31725U 99025CDY 13292.94586005  .00001325  00000-0  24147-2 0  2867
2 31725 099.1999 194.9017 0718690 119.2127 248.3183 12.69579674300188
0 FENGYUN 1C DEB
1 31725U 99025CDY 13295.54645954  .00001489  00000-0  27060-2 0  2874
2 31725 099.1917 196.9934 0718925 113.3885 254.4670 12.69590022300511
